OBJECTID,WELLWIDTH,WELLLENGTH,PAREAWIDTH,LOWWELL,SPECIES,STNAME,Location 1,StreetNumber,Address,Latitude,Longitude
373,0.0,0.0,7.0,,Malus sp,34TH ST,"460
Oakland, Ca
(37.80505999961946, -122.27301999967312)",460,"460 34TH ST, Oakland, CA",37.822339299999996,-122.26445815000001
380,0.0,0.0,3.0,,Persea sp / avocado,RICHMOND BL,"3027
Oakland, Ca
(37.80505999961946, -122.27301999967312)",3027,"3027 RICHMOND, Oakland, CA",37.8190902,-122.26011115
427,0.0,0.0,5.0,,Malus floribunda,SHAY DR,"7945
Oakland, Ca
(37.80505999961946, -122.27301999967312)",7945,"7945 SHAY DR, Oakland, CA",37.774020199999995,-122.1386531873541
1305,0.0,0.0,3.0,,Malus sp,POIRIER ST,"650
Oakland, Ca
(37.80505999961946, -122.27301999967312)",650,"650 POIRIER ST, Oakland, CA",37.8472555,-122.2672088783903
1479,2.0,3.0,0.0,,Malus sp,ALCATRAZ AV,"602
Oakland, Ca
(37.80505999961946, -122.27301999967312)",602,"602 ALCATRAZ AV, Oakland, CA",37.8501294,-122.2626032072034
1992,3.0,5.0,0.0,,Malus sp,BRYANT AV,"5314
Oakland, Ca
(37.80505999961946, -122.27301999967312)",5314,"5314 BRYANT AV, Oakland, CA",37.8380986,-122.25093412669904
2011,0.0,0.0,3.0,,Malus sp,BRYANT AV,"5314
Oakland, Ca
(37.80505999961946, -122.27301999967312)",5314,"5314 BRYANT AV, Oakland, CA",37.8380986,-122.25093412669904
2071,0.0,0.0,2.0,,Malus floribunda,COLBY ST,"6100
Oakland, Ca
(37.80505999961946, -122.27301999967312)",6100,"6100 COLBY ST, Oakland, CA",37.847969750000004,-122.2563625
2442,0.0,0.0,6.0,,Malus sp,CAPELL ST,"585
Oakland, Ca
(37.80505999961946, -122.27301999967312)",585,"585 CAPELL ST, Oakland, CA",37.8042739,-122.24034734834012
2465,0.0,0.0,3.0,,Eriobotrya japonica,EAST 31ST ST,"2218
Oakland, Ca
(37.80505999961946, -122.27301999967312)",2218,"2218 EAST 31ST ST, Oakland, CA",37.79841855,-122.22577135381833
2483,0.0,0.0,3.0,,Malus sp,EAST 28TH ST,"2135
Oakland, Ca
(37.80505999961946, -122.27301999967312)",2135,"2135 EAST 28TH ST, Oakland, CA",37.79491185,-122.22858030674243
2668,0.0,0.0,6.0,,Eriobotrya japonica,SUTER ST,"3300
Oakland, Ca
(37.80505999961946, -122.27301999967312)",3300,"3300 SUTER ST, Oakland, CA",37.793247,-122.20675328537182
3036,3.0,2.0,0.0,,Citrus sp,PIERSON ST,"3320
Oakland, Ca
(37.80505999961946, -122.27301999967312)",3320,"3320 PIERSON ST, Oakland, CA",37.781584699999996,-122.19057263868821
3116,0.0,0.0,2.0,,Eriobotrya japonica,MADERA AV,"3379
Oakland, Ca
(37.80505999961946, -122.27301999967312)",3379,"3379 MADERA AV, Oakland, CA",37.78162495,-122.19183852062764
3210,2.0,4.0,0.0,,Malus sp,COLE ST,"5300
Oakland, Ca
(37.80505999961946, -122.27301999967312)",5300,"5300 COLE ST, Oakland, CA",37.77334615,-122.1983360099677
3654,0.0,0.0,4.5,,Malus floribunda,109TH AV,"2025
Oakland, Ca
(37.80505999961946, -122.27301999967312)",2025,"2025 109TH AV, Oakland, CA",37.7390969,-122.15826168146123
3691,3.0,3.0,0.0,,Malus floribunda,105TH AV,"2001
Oakland, Ca
(37.80505999961946, -122.27301999967312)",2001,"2001 105TH AV, Oakland, CA",37.74133085,-122.16054568074979
3711,0.0,0.0,4.5,,Citrus sp,107TH AV,"2166
Oakland, Ca
(37.80505999961946, -122.27301999967312)",2166,"2166 107TH AV, Oakland, CA",37.7406121,-122.15685713747216
3689,0.0,0.0,5.0,,Eriobotrya japonica,107TH AV,"2248
Oakland, Ca
(37.80505999961946, -122.27301999967312)",2248,"2248 107TH AV, Oakland, CA",37.741101549999996,-122.15512215755402
3792,6.0,6.0,0.0,Moderate,Eriobotrya japonica,WALNUT ST,"9435
Oakland, Ca
(37.80505999961946, -122.27301999967312)",9435,"9435 WALNUT ST, Oakland, CA",37.74738655,-122.17010060348167
3854,0.0,0.0,6.0,,Eriobotrya japonica,92ND AV,"2112
Oakland, Ca
(37.80505999961946, -122.27301999967312)",2112,"2112 92ND AV, Oakland, CA",37.7522444,-122.16566270000001
479,0.0,0.0,3.0,,Citrus sp,ROXBURY AV,"3051
Oakland, Ca
(37.80505999961946, -122.27301999967312)",3051,"3051 ROXBURY AV, Oakland, CA",37.73486905,-122.13698614817126
519,4.0,6.0,0.0,,Malus floribunda,PROCTOR AV,"5100
Oakland, Ca
(37.80505999961946, -122.27301999967312)",5100,"5100 PROCTOR AV, Oakland, CA",37.83853255,-122.22560941016147
604,0.0,0.0,10.0,,Citrus sp,MENDOCINO AV,"5833
Oakland, Ca
(37.80505999961946, -122.27301999967312)",5833,"5833 MENDOCINO AV, Oakland, CA",37.844493299999996,-122.2435834397973
590,0.0,0.0,3.0,,Malus sp,CONTRA COSTA RD,"6333
Oakland, Ca
(37.80505999961946, -122.27301999967312)",6333,"6333 CONTRA COSTA RD, Oakland, CA",37.843300299999996,-122.22938631105683
1064,0.0,0.0,3.0,,Eriobotrya japonica,WOOD ST,"813
Oakland, Ca
(37.80505999961946, -122.27301999967312)",813,"813 WOOD ST, Oakland, CA",37.80847105,-122.30196940023461
1122,0.0,0.0,5.0,,Malus floribunda,62ND ST,"1153
Oakland, Ca
(37.80505999961946, -122.27301999967312)",1153,"1153 62ND ST, Oakland, CA",37.8443216,-122.28540264217054
1571,0.0,0.0,2.0,,Malus sp,GILBERT ST,"4139
Oakland, Ca
(37.80505999961946, -122.27301999967312)",4139,"4139 GILBERT ST, Oakland, CA",37.82908865,-122.25391079000656
1686,0.0,0.0,3.0,,Malus sp,49TH ST,"350
Oakland, Ca
(37.80505999961946, -122.27301999967312)",350,"350 49TH ST, Oakland, CA",37.8347299,-122.25563679518294
1807,0.0,0.0,2.0,,Malus sp,YOSEMITE AV,"77
Oakland, Ca
(37.80505999961946, -122.27301999967312)",77,"77 YOSEMITE AV, Oakland, CA",37.82255145,-122.25437055835957
2136,0.0,0.0,3.0,,Eriobotrya japonica,63RD ST,"347
Oakland, Ca
(37.80505999961946, -122.27301999967312)",347,"347 63RD ST, Oakland, CA",37.8498712,-122.25437465896269
2162,2.0,3.0,0.0,Moderate,Eriobotrya japonica,10TH AV,"1851
Oakland, Ca
(37.80505999961946, -122.27301999967312)",1851,"1851 10TH AV, Oakland, CA",37.7954584,-122.24541553570036
2222,4.0,10.0,0.0,,Malus sp,EAST 14TH ST,"1155
Oakland, Ca
(37.80505999961946, -122.27301999967312)",1155,"1155 EAST 14TH ST, Oakland, CA",37.7354179,-122.1637695
2687,0.0,0.0,2.0,,Malus sp,ABBEY ST,"2932
Oakland, Ca
(37.80505999961946, -122.27301999967312)",2932,"2932 ABBEY ST, Oakland, CA",37.788449,-122.2056888118943
2420,0.0,0.0,7.0,,Eriobotrya japonica,EAST 15TH ST,"2432
Oakland, Ca
(37.80505999961946, -122.27301999967312)",2432,"2432 EAST 15TH ST, Oakland, CA",37.7831391,-122.2328667010327
2962,0.0,0.0,6.0,,Malus floribunda,28TH AV,"1870
Oakland, Ca
(37.80505999961946, -122.27301999967312)",1870,"1870 28TH AV, Oakland, CA",37.78338941617579,-122.22635416567024
3423,0.0,0.0,3.5,,Eriobotrya japonica,70TH AV,"1001
Oakland, Ca
(37.80505999961946, -122.27301999967312)",1001,"1001 70TH AV, Oakland, CA",37.75748725,-122.19414231688685
3501,0.0,0.0,2.0,,Persea sp / avocado,101ST AV,"1126
Oakland, Ca
(37.80505999961946, -122.27301999967312)",1126,"1126 101ST AV, Oakland, CA",37.739647,-122.17291755261051
36556,0.0,0.0,4.0,,Malus sp,LYON AV,"3901
Oakland, Ca
(37.80505999961946, -122.27301999967312)",3901,"3901 LYON AV, Oakland, CA",37.78354485,-122.20841219381109
2683,2.0,4.0,0.0,Low,Malus sp,FRUITVALE AV,"3003
Oakland, Ca
(37.80505999961946, -122.27301999967312)",3003,"3003 FRUITVALE AV, Oakland, CA",37.79475205,-122.21874563171991
4321,0.0,0.0,5.0,,Malus sp,SUNNYHILLS RD,"951
Oakland, Ca
(37.80505999961946, -122.27301999967312)",951,"951 SUNNYHILLS RD, Oakland, CA",37.80902545,-122.23232736484374
4445,0.0,0.0,7.5,,Citrus sp,LAKE SHORE AV,"4163
Oakland, Ca
(37.80505999961946, -122.27301999967312)",4163,"4163 LAKE SHORE, Oakland, CA",,
4616,2.0,6.0,0.0,Low,Malus sp,VICTOR AV,"3387
Oakland, Ca
(37.80505999961946, -122.27301999967312)",3387,"3387 VICTOR AV, Oakland, CA",37.7995971,-122.19372803577983
4869,0.0,0.0,2.0,,Malus sp,VERNON ST,"396
Oakland, Ca
(37.80505999961946, -122.27301999967312)",396,"396 VERNON ST, Oakland, CA",37.81615695,-122.25410684979661
5364,3.0,3.0,0.0,Moderate,Malus floribunda,HANSOM DR,"7920
Oakland, Ca
(37.80505999961946, -122.27301999967312)",7920,"7920 HANSOM DR, Oakland, CA",37.7752203,-122.13771170087631
5415,0.0,0.0,3.0,,Citrus sp,ROXBURY AV,"3051
Oakland, Ca
(37.80505999961946, -122.27301999967312)",3051,"3051 ROXBURY AV, Oakland, CA",37.73486905,-122.13698614817126
5449,3.0,3.0,0.0,,Malus sp,ACACIA AV,"6315
Oakland, Ca
(37.80505999961946, -122.27301999967312)",6315,"6315 ACACIA AV, Oakland, CA",37.84547435,-122.23576835107943
5566,0.0,0.0,10.0,,Malus sp,MARGARIDO DR,"6017
Oakland, Ca
(37.80505999961946, -122.27301999967312)",6017,"6017 MARGARIDO DR, Oakland, CA",37.8459077,-122.24194583630299
6026,4.0,6.0,0.0,Low,Eriobotrya japonica,57TH ST,"688
Oakland, Ca
(37.80505999961946, -122.27301999967312)",688,"688 57TH ST, Oakland, CA",37.842442950000006,-122.26742723346418
6489,0.0,0.0,2.0,,Malus sp,YOSEMITE AV,"45
Oakland, Ca
(37.80505999961946, -122.27301999967312)",45,"45 YOSEMITE AV, Oakland, CA",37.822970299999994,-122.2548715164568
6668,0.0,0.0,2.0,,Malus floribunda,VICENTE WY,"5508
Oakland, Ca
(37.80505999961946, -122.27301999967312)",5508,"5508 VICENTE WY, Oakland, CA",37.84035565,-122.26037290912642
6777,2.5,2.5,0.0,,Citrus sp,CHABOLYN TR,"5936
Oakland, Ca
(37.80505999961946, -122.27301999967312)",5936,"5936 Chabolyn Terrace, Oakland, CA",37.85097745,-122.24440657493352
6812,0.0,0.0,3.0,,Malus sp,MYSTIC ST,"6451
Oakland, Ca
(37.80505999961946, -122.27301999967312)",6451,"6451 MYSTIC ST, Oakland, CA",37.851408199999995,-122.24920241067798
6839,0.0,0.0,8.0,,Malus floribunda,CHABOT RD,"6037
Oakland, Ca
(37.80505999961946, -122.27301999967312)",6037,"6037 CHABOT RD, Oakland, CA",37.8475898,-122.25152685
6918,0.0,0.0,8.0,,Malus floribunda,CHABOT RD,"6037
Oakland, Ca
(37.80505999961946, -122.27301999967312)",6037,"6037 CHABOT RD, Oakland, CA",37.8475898,-122.25152685
6948,0.0,0.0,3.5,,Malus sp,DANA ST,"6608
Oakland, Ca
(37.80505999961946, -122.27301999967312)",6608,"6608 DANA ST, Oakland, CA",37.85235935,-122.25786359842155
6994,3.5,6.0,0.0,,Malus sp,EAST 20TH ST,"1148
Oakland, Ca
(37.80505999961946, -122.27301999967312)",1148,"1148 EAST 20TH ST, Oakland, CA",37.794780200000005,-122.24247477434292
6989,2.0,3.0,0.0,,Eriobotrya japonica,10TH AV,"1851
Oakland, Ca
(37.80505999961946, -122.27301999967312)",1851,"1851 10TH AV, Oakland, CA",37.7954584,-122.24541553570036
7015,2.0,6.0,0.0,Low,Malus sp,EAST 14TH ST,"831
Oakland, Ca
(37.80505999961946, -122.27301999967312)",831,"831 EAST 14TH ST, Oakland, CA",37.7354179,-122.1637695
18849,3.0,3.0,0.0,,Citrus sp,CLARENDON CR,"1000
Oakland, Ca
(37.80505999961946, -122.27301999967312)",1000,"1000 CLARENDON CR, Oakland, CA",37.8125055,-122.22840366859421
7180,1.0,1.0,0.0,,Citrus sp,EAST 33RD ST,"1426
Oakland, Ca
(37.80505999961946, -122.27301999967312)",1426,"1426 EAST 33RD ST, Oakland, CA",37.80079005,-122.23019724013587
7282,0.0,0.0,6.0,,Persea sp / avocado,EAST 15TH ST,"1705
Oakland, Ca
(37.80505999961946, -122.27301999967312)",1705,"1705 EAST 15TH ST, Oakland, CA",37.788286850000006,-122.24235635
7306,0.0,0.0,6.0,,Malus sp,CAPELL ST,"579
Oakland, Ca
(37.80505999961946, -122.27301999967312)",579,"579 CAPELL ST, Oakland, CA",37.804185950000004,-122.24048368918616
7338,1.0,1.0,0.0,High,Eriobotrya japonica,EAST 22ND ST,"2601
Oakland, Ca
(37.80505999961946, -122.27301999967312)",2601,"2601 EAST 22ND ST, Oakland, CA",37.7867744,-122.22669389160568
7372,0.0,0.0,2.5,,Malus sp,EAST 30TH ST,"2215
Oakland, Ca
(37.80505999961946, -122.27301999967312)",2215,"2215 EAST 30TH ST, Oakland, CA",37.796445399999996,-122.22646985
7448,0.0,0.0,4.0,,Eriobotrya japonica,OCTAVIA ST,"2923
Oakland, Ca
(37.80505999961946, -122.27301999967312)",2923,"2923 OCTAVIA ST, Oakland, CA",37.7891929,-122.2067291021699
7640,0.0,0.0,2.0,,Malus sp,SCHYLER ST,"2936
Oakland, Ca
(37.80505999961946, -122.27301999967312)",2936,"2936 SCHYLER ST, Oakland, CA",37.79477265,-122.2143922747326
7934,2.0,5.0,0.0,Low,Malus sp,63RD AV,"1350
Oakland, Ca
(37.80505999961946, -122.27301999967312)",1350,"1350 63RD AV, Oakland, CA",37.76263865,-122.19769679719585
8006,0.0,0.0,4.0,,Eriobotrya japonica,61ST AV,"1280
Oakland, Ca
(37.80505999961946, -122.27301999967312)",1280,"1280 61ST AV, Oakland, CA",37.762699100000006,-122.20000159343445
8216,0.0,0.0,9.0,,Eriobotrya japonica,60TH AV,"3131
Oakland, Ca
(37.80505999961946, -122.27301999967312)",3131,"3131 60TH AV, Oakland, CA",37.77540195,-122.18418304778457
8190,0.0,0.0,4.0,,Citrus sp,BRANN ST,"6680
Oakland, Ca
(37.80505999961946, -122.27301999967312)",6680,"6680 BRANN ST, Oakland, CA",37.77103395,-122.17980176717954
33991,5.0,5.0,0.0,,Malus floribunda,3RD ST,"200
Oakland, Ca
(37.80505999961946, -122.27301999967312)",200,"200 3RD ST, Oakland, CA",37.79484155,-122.27045313819642
8227,0.0,0.0,6.0,,Persea sp / avocado,HAVENSCOURT BL,"2600
Oakland, Ca
(37.80505999961946, -122.27301999967312)",2600,"2600 HAVENSCOURT, Oakland, CA",37.7676019,-122.1841686484534
8348,0.0,0.0,2.0,,Eriobotrya japonica,103RD AV,"1754
Oakland, Ca
(37.80505999961946, -122.27301999967312)",1754,"1754 103RD AV, Oakland, CA",37.7417959,-122.16353971448764
8428,0.0,0.0,3.5,,Malus sp,BEVERLY AV,"10700
Oakland, Ca
(37.80505999961946, -122.27301999967312)",10700,"10700 BEVERLY AV, Oakland, CA",37.7399707,-122.15934007931034
8546,0.0,0.0,5.5,,Eriobotrya japonica,84TH AV,"1239
Oakland, Ca
(37.80505999961946, -122.27301999967312)",1239,"1239 84TH AV, Oakland, CA",37.75304915,-122.18041305120049
8987,3.0,3.0,0.0,,Malus floribunda,SAN SEBASTIAN AV,"4618
Oakland, Ca
(37.80505999961946, -122.27301999967312)",4618,"4618 SAN SEBASTIAN AV, Oakland, CA",37.8106432,-122.21854792249852
9149,2.0,2.0,0.0,Moderate,Citrus sp,DAVENPORT AV,"4859
Oakland, Ca
(37.80505999961946, -122.27301999967312)",4859,"4859 DAVENPORT AV, Oakland, CA",37.7849695,-122.1814377617228
9224,0.0,0.0,3.0,,Malus sp,GLENDORA AV,"1072
Oakland, Ca
(37.80505999961946, -122.27301999967312)",1072,"1072 GLENDORA AV, Oakland, CA",37.810664599999996,-122.22034329715422
9243,0.0,0.0,3.0,,Persea sp / avocado,PATTERSON AV,"3724
Oakland, Ca
(37.80505999961946, -122.27301999967312)",3724,"3724 PATTERSON AV, Oakland, CA",37.7920488,-122.19624233788014
9296,0.0,0.0,6.0,,Malus sp,DETROIT AV,"4218
Oakland, Ca
(37.80505999961946, -122.27301999967312)",4218,"4218 DETROIT AV, Oakland, CA",37.7971151,-122.1890293
9462,0.0,0.0,2.0,,Malus sp,OAKMORE RD,"3906
Oakland, Ca
(37.80505999961946, -122.27301999967312)",3906,"3906 OAKMORE RD, Oakland, CA",37.807013850000004,-122.21475756096399
9563,0.0,0.0,4.0,,Citrus sp,COOLIDGE AV,"4010
Oakland, Ca
(37.80505999961946, -122.27301999967312)",4010,"4010 COOLIDGE AV, Oakland, CA",37.8036779,-122.20320043920552
9593,0.0,0.0,5.0,,Prunus cerasifera,,"0
Oakland, Ca
(37.80505999961946, -122.27301999967312)",0,,46.3144754,11.0480288
9761,0.0,0.0,2.0,,Malus sp,VERNON ST,"396
Oakland, Ca
(37.80505999961946, -122.27301999967312)",396,"396 VERNON ST, Oakland, CA",37.81615695,-122.25410684979661
9763,2.0,2.0,0.0,,Malus sp,HARRISON ST,"3233
Oakland, Ca
(37.80505999961946, -122.27301999967312)",3233,"3233 HARRISON ST, Oakland, CA",37.81800773158825,-122.25637719684504
9894,0.0,0.0,4.0,,Malus floribunda,3RD ST,"200
Oakland, Ca
(37.80505999961946, -122.27301999967312)",200,"200 3RD ST, Oakland, CA",37.79484155,-122.27045313819642
9910,0.0,0.0,2.0,,Malus floribunda,ADAMS ST,"395
Oakland, Ca
(37.80505999961946, -122.27301999967312)",395,"395 ADAMS ST, Oakland, CA",37.81574205,-122.25395988872944
9935,2.0,2.0,0.0,High,Malus sp,HARRISON ST,"3100
Oakland, Ca
(37.80505999961946, -122.27301999967312)",3100,"3100 HARRISON ST, Oakland, CA",37.8173166,-122.25692811056776
13906,0.0,0.0,6.0,,Citrus sp,TRESTLE GLEN RD,"1707
Oakland, Ca
(37.80505999961946, -122.27301999967312)",1707,"1707 TRESTLE GLEN RD, Oakland, CA",37.813018650000004,-122.22110692020445
10460,6.0,3.0,0.0,,Malus sp,MARKET ST,"1702
Oakland, Ca
(37.80505999961946, -122.27301999967312)",1702,"1702 MARKET ST, Oakland, CA",37.81032835,-122.27947383672154
10731,0.0,0.0,2.0,,Malus sp,ARLINGTON AV,"831
Oakland, Ca
(37.80505999961946, -122.27301999967312)",831,"831 ARLINGTON AV, Oakland, CA",37.842438349999995,-122.27143532336675
10766,0.0,0.0,5.0,,Malus floribunda,62ND ST,"1153
Oakland, Ca
(37.80505999961946, -122.27301999967312)",1153,"1153 62ND ST, Oakland, CA",37.8443216,-122.28540264217054
10919,0.0,0.0,32.0,,Malus sp,46TH ST,"540
Oakland, Ca
(37.80505999961946, -122.27301999967312)",540,"540 46TH ST, Oakland, CA",37.83400315,-122.26443386258043
11006,0.0,0.0,46.0,,Malus sp,46TH ST,"540
Oakland, Ca
(37.80505999961946, -122.27301999967312)",540,"540 46TH ST, Oakland, CA",37.83400315,-122.26443386258043
11070,2.0,4.0,0.0,,Malus sp,DEAKIN ST,"6614
Oakland, Ca
(37.80505999961946, -122.27301999967312)",6614,"6614 DEAKIN ST, Oakland, CA",37.8522429,-122.26155594970936
11185,2.0,2.0,0.0,Low,Persea sp / avocado,48TH ST,"418
Oakland, Ca
(37.80505999961946, -122.27301999967312)",418,"418 48TH ST, Oakland, CA",37.8344842,-122.25934155
11304,0.0,0.0,2.5,,Malus sp,LAWTON AV,"5416
Oakland, Ca
(37.80505999961946, -122.27301999967312)",5416,"5416 LAWTON AV, Oakland, CA",37.84104545,-122.2524261117542
11408,0.0,0.0,3.0,,Malus floribunda,MCAULEY ST,"441
Oakland, Ca
(37.80505999961946, -122.27301999967312)",441,"441 MCAULEY ST, Oakland, CA",37.8457236,-122.25797727131618
11441,0.0,0.0,3.0,,Malus sp,42ND ST,"491
Oakland, Ca
(37.80505999961946, -122.27301999967312)",491,"491 42ND ST, Oakland, CA",37.8306064,-122.2633021
11460,0.0,0.0,2.0,,Malus sp,YOSEMITE AV,"46
Oakland, Ca
(37.80505999961946, -122.27301999967312)",46,"46 YOSEMITE AV, Oakland, CA",37.823219699999996,-122.25449999271589
11478,2.0,4.0,0.0,,Malus floribunda,VICENTE WY,"5508
Oakland, Ca
(37.80505999961946, -122.27301999967312)",5508,"5508 VICENTE WY, Oakland, CA",37.84035565,-122.26037290912642
11546,2.0,4.0,0.0,,Malus floribunda,VICENTE WY,"5508
Oakland, Ca
(37.80505999961946, -122.27301999967312)",5508,"5508 VICENTE WY, Oakland, CA",37.84035565,-122.26037290912642
11606,0.0,0.0,2.5,,Malus sp,SHAFTER AV,"5306
Oakland, Ca
(37.80505999961946, -122.27301999967312)",5306,"5306 SHAFTER AV, Oakland, CA",37.83962215,-122.25567124999999
11745,3.0,3.0,0.0,,Malus sp,MANOA ST,"6206
Oakland, Ca
(37.80505999961946, -122.27301999967312)",6206,"6206 MANOA ST, Oakland, CA",37.8504604,-122.24958617818366
11766,0.0,0.0,3.5,,Citrus sp,DANA ST,"6618
Oakland, Ca
(37.80505999961946, -122.27301999967312)",6618,"6618 DANA ST, Oakland, CA",37.85258,-122.25795513531301
11797,0.0,0.0,3.0,,Malus sp,MANILA AV,"5478
Oakland, Ca
(37.80505999961946, -122.27301999967312)",5478,"5478 MANILA AV, Oakland, CA",37.84106855,-122.24953425000001
11839,0.0,0.0,3.5,,Malus sp,DANA ST,"6612
Oakland, Ca
(37.80505999961946, -122.27301999967312)",6612,"6612 DANA ST, Oakland, CA",37.852469299999996,-122.25791878728027
11891,3.0,6.0,0.0,,Malus sp,EAST 14TH ST,"831
Oakland, Ca
(37.80505999961946, -122.27301999967312)",831,"831 EAST 14TH ST, Oakland, CA",37.7354179,-122.1637695
11965,0.0,0.0,4.0,,Persea sp / avocado,EAST 23RD ST,"842
Oakland, Ca
(37.80505999961946, -122.27301999967312)",842,"842 EAST 23RD ST, Oakland, CA",37.79920459681649,-122.24260880485822
11994,2.0,2.0,0.0,Moderate,Malus sp,ZORAH ST,"522
Oakland, Ca
(37.80505999961946, -122.27301999967312)",522,"522 ZORAH ST, Oakland, CA",37.80309135,-122.24230315856354
12040,3.0,3.0,0.0,Low,Malus sp,EAST 23RD ST,"1211
Oakland, Ca
(37.80505999961946, -122.27301999967312)",1211,"1211 EAST 23RD ST, Oakland, CA",37.79615305,-122.23975662836034
12061,0.0,0.0,4.0,,Malus sp,EAST 27TH ST,"1317
Oakland, Ca
(37.80505999961946, -122.27301999967312)",1317,"1317 EAST 27TH ST, Oakland, CA",37.79791185,-122.23558779889596
12089,0.0,0.0,5.0,,Malus sp,HILLGIRT CR,"636
Oakland, Ca
(37.80505999961946, -122.27301999967312)",636,"636 HILLGIRT, Oakland, CA",37.8081793,-122.24439783115464
12110,0.0,0.0,4.0,,Malus sp,,"0
Oakland, Ca
(37.80505999961946, -122.27301999967312)",0,,46.3144754,11.0480288
12165,0.0,0.0,4.0,,Malus sp,EAST 33RD ST,"1348
Oakland, Ca
(37.80505999961946, -122.27301999967312)",1348,"1348 EAST 33RD ST, Oakland, CA",37.8010682,-122.23175768717441
12351,0.0,0.0,2.0,,Malus sp,PENNIMAN AV,"3651
Oakland, Ca
(37.80505999961946, -122.27301999967312)",3651,"3651 PENNIMAN AV, Oakland, CA",37.78858305,-122.20553195616986
12819,0.0,0.0,2.0,,Malus sp,MAXWELL AV,"2930
Oakland, Ca
(37.80505999961946, -122.27301999967312)",2930,"2930 MAXWELL AV, Oakland, CA",37.7798854,-122.19430724544515
12855,0.0,0.0,6.0,,Malus floribunda,HIGH ST,"2700
Oakland, Ca
(37.80505999961946, -122.27301999967312)",2700,"2700 HIGH ST, Oakland, CA",37.78292915,-122.20294446411478
12856,0.0,0.0,6.0,,Malus floribunda,HIGH ST,"2700
Oakland, Ca
(37.80505999961946, -122.27301999967312)",2700,"2700 HIGH ST, Oakland, CA",37.78292915,-122.20294446411478
13205,0.0,0.0,5.5,,Malus sp,109TH AV,"1814
Oakland, Ca
(37.80505999961946, -122.27301999967312)",1814,"1814 109TH AV, Oakland, CA",37.7381423,-122.1603914444707
13348,0.0,0.0,0.0,,Eriobotrya japonica,102ND AV,"2103
Oakland, Ca
(37.80505999961946, -122.27301999967312)",2103,"2103 102ND AV, Oakland, CA",37.74379555,-122.16018422622358
13337,0.0,0.0,3.0,,Eriobotrya japonica,78TH AV,"1283
Oakland, Ca
(37.80505999961946, -122.27301999967312)",1283,"1283 78TH AV, Oakland, CA",37.7567528,-122.18507166039902
13334,0.0,0.0,5.0,,Eriobotrya japonica,94TH AV,"1545
Oakland, Ca
(37.80505999961946, -122.27301999967312)",1545,"1545 94TH AV, Oakland, CA",37.74827235,-122.1706616968908
13439,0.0,0.0,3.0,,Citrus sp,77TH AV,"1279
Oakland, Ca
(37.80505999961946, -122.27301999967312)",1279,"1279 77TH AV, Oakland, CA",37.75696055,-122.18559835617597
13586,0.0,0.0,6.0,,Malus floribunda,85TH AV,"1676
Oakland, Ca
(37.80505999961946, -122.27301999967312)",1676,"1676 85TH AV, Oakland, CA",37.7549633,-122.17406200099671
13672,0.0,0.0,2.0,,Malus floribunda,TRESTLE GLEN RD,"651
Oakland, Ca
(37.80505999961946, -122.27301999967312)",651,"651 TRESTLE GLEN RD, Oakland, CA",37.80996745,-122.24226431007327
13710,0.0,0.0,4.0,,Malus sp,WALAVISTA AV,"751
Oakland, Ca
(37.80505999961946, -122.27301999967312)",751,"751 WALAVISTA AV, Oakland, CA",37.814392,-122.23315924892736
14102,0.0,0.0,3.0,,Citrus sp,VALE AV,"3961
Oakland, Ca
(37.80505999961946, -122.27301999967312)",3961,"3961 VALE AV, Oakland, CA",37.791376299999996,-122.1891305
14451,0.0,0.0,5.0,,Malus sp,WHITTLE AV,"3891
Oakland, Ca
(37.80505999961946, -122.27301999967312)",3891,"3891 WHITTLE AV, Oakland, CA",37.8040507,-122.21128149662145
14457,3.0,3.0,0.0,Low,Citrus sp,KINGSLEY ST,"3619
Oakland, Ca
(37.80505999961946, -122.27301999967312)",3619,"3619 KINGSLEY ST, Oakland, CA",37.8044789,-122.23208411252898
14510,2.0,2.0,0.0,,Prunus cerasifera,,"0
Oakland, Ca
(37.80505999961946, -122.27301999967312)",0,,46.3144754,11.0480288
14526,0.0,0.0,0.0,,Malus sp,,"576
Oakland, Ca
(37.80505999961946, -122.27301999967312)",576,,46.3144754,11.0480288
14712,2.0,2.0,0.0,Low,Persea sp / avocado,JACKSON ST,"900
Oakland, Ca
(37.80505999961946, -122.27301999967312)",900,"900 JACKSON ST, Oakland, CA",37.79868275,-122.26701899104361
14999,0.0,0.0,5.0,,Malus floribunda,COACH DR,"8156
Oakland, Ca
(37.80505999961946, -122.27301999967312)",8156,"8156 COACH DR, Oakland, CA",37.770418750000005,-122.13764308058742
15106,0.0,0.0,3.0,,Malus sp,PROCTOR AV,"5125
Oakland, Ca
(37.80505999961946, -122.27301999967312)",5125,"5125 PROCTOR AV, Oakland, CA",37.837957700000004,-122.22554017025587
15121,0.0,0.0,14.0,,Malus sp,GOLDEN GATE AV,"5501
Oakland, Ca
(37.80505999961946, -122.27301999967312)",5501,"5501 GOLDEN GATE AV, Oakland, CA",37.846676849999994,-122.23755619792524
15187,0.0,0.0,10.0,,Malus sp,OCEAN VIEW DR,"6035
Oakland, Ca
(37.80505999961946, -122.27301999967312)",6035,"6035 OCEAN VIEW DR, Oakland, CA",37.8466126,-122.24307143202417
15775,0.0,0.0,3.0,,Malus floribunda,42ND ST,"832
Oakland, Ca
(37.80505999961946, -122.27301999967312)",832,"832 42ND ST, Oakland, CA",37.8322631,-122.27187101867223
16081,0.0,0.0,4.0,,Malus floribunda,MONTE CRESTA AV,"111
Oakland, Ca
(37.80505999961946, -122.27301999967312)",111,"111 MONTE CRESTA AV, Oakland, CA",37.824821299999996,-122.24999030256097
16089,0.0,0.0,5.0,,Malus sp,MONTGOMERY ST,"4280
Oakland, Ca
(37.80505999961946, -122.27301999967312)",4280,"4280 MONTGOMERY ST, Oakland, CA",37.82975595,-122.2509115509813
16161,0.0,0.0,3.0,,Malus floribunda,60TH ST,"398
Oakland, Ca
(37.80505999961946, -122.27301999967312)",398,"398 60TH ST, Oakland, CA",37.8470214,-122.25627604460507
16193,0.0,0.0,3.0,,Malus floribunda,MCAULEY ST,"441
Oakland, Ca
(37.80505999961946, -122.27301999967312)",441,"441 MCAULEY ST, Oakland, CA",37.8457236,-122.25797727131618
16240,2.5,3.0,0.0,,Citrus sp,SHAFTER AV,"4215
Oakland, Ca
(37.80505999961946, -122.27301999967312)",4215,"4215 SHAFTER AV, Oakland, CA",37.83146515,-122.259247
16400,0.0,0.0,3.5,,Malus floribunda,REGENT ST,"6446
Oakland, Ca
(37.80505999961946, -122.27301999967312)",6446,"6446 REGENT ST, Oakland, CA",37.85269025,-122.25575035476072
16432,3.0,2.0,0.0,,Malus floribunda,ROSS ST,"5732
Oakland, Ca
(37.80505999961946, -122.27301999967312)",5732,"5732 ROSS ST, Oakland, CA",37.84823045,-122.24562279535928
16465,4.0,6.0,0.0,,Malus sp,LAWTON AV,"6101
Oakland, Ca
(37.80505999961946, -122.27301999967312)",6101,"6101 LAWTON AV, Oakland, CA",37.84355545,-122.24449329738988
16452,3.5,3.5,0.0,Low,Malus sp,TAFT AV,"5557
Oakland, Ca
(37.80505999961946, -122.27301999967312)",5557,"5557 TAFT AV, Oakland, CA",37.8425768,-122.24875351778172
16502,3.5,4.0,0.0,,Malus floribunda,REGENT ST,"6447
Oakland, Ca
(37.80505999961946, -122.27301999967312)",6447,"6447 REGENT ST, Oakland, CA",37.8526496,-122.25628834679387
16571,0.0,0.0,3.5,,Malus floribunda,REGENT ST,"6433
Oakland, Ca
(37.80505999961946, -122.27301999967312)",6433,"6433 REGENT ST, Oakland, CA",37.8520689,-122.2561331
16607,0.0,0.0,3.5,,Malus sp,DANA ST,"6604
Oakland, Ca
(37.80505999961946, -122.27301999967312)",6604,"6604 DANA ST, Oakland, CA",37.8522547,-122.25787315
16909,0.0,0.0,7.0,,Eriobotrya japonica,EAST 15TH ST,"2432
Oakland, Ca
(37.80505999961946, -122.27301999967312)",2432,"2432 EAST 15TH ST, Oakland, CA",37.7831391,-122.2328667010327
16930,3.0,5.0,0.0,,Malus sp,MERRITT AV,"595
Oakland, Ca
(37.80505999961946, -122.27301999967312)",595,"595 MERRITT AV, Oakland, CA",37.80801235,-122.24588382306914
16985,0.0,0.0,3.0,,Citrus sp,EAST 21ST ST,"2806
Oakland, Ca
(37.80505999961946, -122.27301999967312)",2806,"2806 EAST 21ST ST, Oakland, CA",37.785002649999996,-122.2251862234375
17036,3.0,3.0,0.0,High,Malus sp,CAPELL ST,"567
Oakland, Ca
(37.80505999961946, -122.27301999967312)",567,"567 CAPELL ST, Oakland, CA",37.80392045,-122.24062120165208
17234,0.0,0.0,0.0,,Malus sp,40TH AV,"0
Oakland, Ca
(37.80505999961946, -122.27301999967312)",0,"0 40TH AV, Oakland, CA",37.7709458,-122.2203505
17334,2.0,3.0,0.0,Moderate,Citrus sp,SANTA RITA ST,"2251
Oakland, Ca
(37.80505999961946, -122.27301999967312)",2251,"2251 SANTA RITA ST, Oakland, CA",37.78407035,-122.2113154878409
17385,0.0,0.0,4.0,,Malus sp,MERA ST,"4125
Oakland, Ca
(37.80505999961946, -122.27301999967312)",4125,"4125 MERA ST, Oakland, CA",37.7770487,-122.21201458061824
17447,0.0,0.0,4.0,,Malus sp,MERA ST,"4115
Oakland, Ca
(37.80505999961946, -122.27301999967312)",4115,"4115 MERA ST, Oakland, CA",37.7772467,-122.21219511557044
17454,0.0,0.0,3.0,,Malus sp,41ST AV,"2108
Oakland, Ca
(37.80505999961946, -122.27301999967312)",2108,"2108 41ST AV, Oakland, CA",37.77860475,-122.21075833883023
17724,0.0,0.0,4.0,,Persea sp / avocado,57TH AV,"1506
Oakland, Ca
(37.80505999961946, -122.27301999967312)",1506,"1506 57TH AV, Oakland, CA",37.76699445,-122.20000955262103
17715,3.0,3.0,0.0,,Persea sp / avocado,52ND AV,"1602
Oakland, Ca
(37.80505999961946, -122.27301999967312)",1602,"1602 52ND AV, Oakland, CA",37.77053685,-122.20534264429057
17853,0.0,0.0,2.0,,Eriobotrya japonica,BUENA VENTURA AV,"6437
Oakland, Ca
(37.80505999961946, -122.27301999967312)",6437,"6437 BUENA VENTURA AV, Oakland, CA",37.77648285,-122.17554361718487
18180,0.0,0.0,5.5,,Citrus sp,108TH AV,"1824
Oakland, Ca
(37.80505999961946, -122.27301999967312)",1824,"1824 108TH AV, Oakland, CA",37.73879595,-122.1606822
18168,5.0,5.0,0.0,Low,Feijoa sellowiana,109TH AV,"2636
Oakland, Ca
(37.80505999961946, -122.27301999967312)",2636,"2636 109TH AV, Oakland, CA",37.7414226,-122.14858835282271
18254,0.0,0.0,5.0,,Malus floribunda,PEACH ST,"9229
Oakland, Ca
(37.80505999961946, -122.27301999967312)",9229,"9229 PEACH ST, Oakland, CA",37.7524617,-122.16389577857996
18278,0.0,0.0,7.5,,Malus floribunda,92ND AV,"1937
Oakland, Ca
(37.80505999961946, -122.27301999967312)",1937,"1937 92ND AV, Oakland, CA",37.75180345,-122.1676077187806
18326,0.0,0.0,6.0,,Eriobotrya japonica,92ND AV,"2116
Oakland, Ca
(37.80505999961946, -122.27301999967312)",2116,"2116 92ND AV, Oakland, CA",37.75227545,-122.16552390876322
18589,2.0,6.0,0.0,High,Malus sp,ROSAL AV,"580
Oakland, Ca
(37.80505999961946, -122.27301999967312)",580,"580 ROSAL AV, Oakland, CA",37.81421255,-122.24010544335306
18754,0.0,0.0,4.0,,Eriobotrya japonica,ARDLEY AV,"4003
Oakland, Ca
(37.80505999961946, -122.27301999967312)",4003,"4003 ARDLEY AV, Oakland, CA",37.8050561,-122.22314491947492
18846,0.0,0.0,4.0,,Eriobotrya japonica,14TH AV,"3600
Oakland, Ca
(37.80505999961946, -122.27301999967312)",3600,"3600 14TH AV, Oakland, CA",37.801820333588005,-122.22568976873784
19005,0.0,0.0,6.0,,Malus sp,DETROIT AV,"4224
Oakland, Ca
(37.80505999961946, -122.27301999967312)",4224,"4224 DETROIT AV, Oakland, CA",37.79724985,-122.18899857230433
19292,0.0,0.0,5.0,,Prunus cerasifera,,"0
Oakland, Ca
(37.80505999961946, -122.27301999967312)",0,,46.3144754,11.0480288
19294,0.0,0.0,5.0,,Prunus cerasifera,,"0
Oakland, Ca
(37.80505999961946, -122.27301999967312)",0,,46.3144754,11.0480288
19305,0.0,0.0,6.0,,Prunus cerasifera,,"0
Oakland, Ca
(37.80505999961946, -122.27301999967312)",0,,46.3144754,11.0480288
19307,2.0,2.0,0.0,,Prunus cerasifera,,"0
Oakland, Ca
(37.80505999961946, -122.27301999967312)",0,,46.3144754,11.0480288
19493,2.0,3.0,0.0,Low,Persea sp / avocado,JACKSON ST,"900
Oakland, Ca
(37.80505999961946, -122.27301999967312)",900,"900 JACKSON ST, Oakland, CA",37.79868275,-122.26701899104361
21481,0.0,0.0,5.0,,Feijoa sellowiana,MCKINLEY AV,"744
Oakland, Ca
(37.80505999961946, -122.27301999967312)",744,"744 MCKINLEY AV, Oakland, CA",37.80674165,-122.24250555555655
19790,0.0,0.0,3.0,,Citrus sp,ROXBURY AV,"3051
Oakland, Ca
(37.80505999961946, -122.27301999967312)",3051,"3051 ROXBURY AV, Oakland, CA",37.73486905,-122.13698614817126
19813,3.0,3.0,0.0,Moderate,Malus sp,ACACIA AV,"6315
Oakland, Ca
(37.80505999961946, -122.27301999967312)",6315,"6315 ACACIA AV, Oakland, CA",37.84547435,-122.23576835107943
20434,0.0,0.0,3.0,,Eriobotrya japonica,FREMONT ST,"5920
Oakland, Ca
(37.80505999961946, -122.27301999967312)",5920,"5920 FREMONT ST, Oakland, CA",37.84274430000001,-122.2853324
20517,0.0,0.0,4.0,,Malus sp,61ST ST,"717
Oakland, Ca
(37.80505999961946, -122.27301999967312)",717,"717 61ST ST, Oakland, CA",37.8461552,-122.26897080922191
20546,0.0,0.0,4.0,,Malus sp,54TH ST,"849
Oakland, Ca
(37.80505999961946, -122.27301999967312)",849,"849 54TH ST, Oakland, CA",37.838589,-122.271394
20542,0.0,0.0,4.0,,Eriobotrya japonica,DOVER ST,"5323
Oakland, Ca
(37.80505999961946, -122.27301999967312)",5323,"5323 DOVER ST, Oakland, CA",37.838967350000004,-122.2672279336571
20601,0.0,0.0,3.0,,Malus floribunda,42ND ST,"832
Oakland, Ca
(37.80505999961946, -122.27301999967312)",832,"832 42ND ST, Oakland, CA",37.8322631,-122.27187101867223
20669,0.0,0.0,2.0,,Persea sp / avocado,TELEGRAPH AV,"6601
Oakland, Ca
(37.80505999961946, -122.27301999967312)",6601,"6601 TELEGRAPH AV, Oakland, CA",37.8522153,-122.26053478914717
21001,0.0,0.0,2.0,,Malus floribunda,60TH ST,"398
Oakland, Ca
(37.80505999961946, -122.27301999967312)",398,"398 60TH ST, Oakland, CA",37.8470214,-122.25627604460507
21062,0.0,0.0,2.5,,Citrus sp,AYALA AV,"5747
Oakland, Ca
(37.80505999961946, -122.27301999967312)",5747,"5747 AYALA AV, Oakland, CA",37.84375765,-122.25861533210787
21096,0.0,0.0,2.5,,Persea sp / avocado,SHAFTER AV,"5224
Oakland, Ca
(37.80505999961946, -122.27301999967312)",5224,"5224 SHAFTER AV, Oakland, CA",37.838321449999995,-122.25674189576519
21130,0.0,0.0,3.0,,Eriobotrya japonica,BROADWAY,"5558
Oakland, Ca
(37.80505999961946, -122.27301999967312)",5558,"5558 BROADWAY, Oakland, CA",37.8411869,-122.24784155004448
21206,0.0,0.0,3.0,,Eriobotrya japonica,KALES AV,"5624
Oakland, Ca
(37.80505999961946, -122.27301999967312)",5624,"5624 KALES AV, Oakland, CA",37.8422596,-122.24661839357566
21237,0.0,0.0,3.0,,Diospyros kaki,COLLEGE AV,"6310
Oakland, Ca
(37.80505999961946, -122.27301999967312)",6310,"6310 COLLEGE AV, Oakland, CA",37.8506081,-122.25203
21303,3.0,3.0,0.0,,Malus sp,MANILA AV,"5121
Oakland, Ca
(37.80505999961946, -122.27301999967312)",5121,"5121 MANILA AV, Oakland, CA",37.8363215,-122.25528503658192
21350,0.0,0.0,3.0,,Malus floribunda,63RD ST,"347
Oakland, Ca
(37.80505999961946, -122.27301999967312)",347,"347 63RD ST, Oakland, CA",37.8498712,-122.25437465896269
21411,0.0,0.0,4.0,,Malus sp,9TH AV,"1444
Oakland, Ca
(37.80505999961946, -122.27301999967312)",1444,"1444 9TH AV, Oakland, CA",37.79328065,-122.24960305
21452,4.0,6.0,0.0,,Malus sp,EAST 14TH ST,"751
Oakland, Ca
(37.80505999961946, -122.27301999967312)",751,"751 EAST 14TH ST, Oakland, CA",37.7354179,-122.1637695
21512,0.0,0.0,5.0,,Malus sp,EAST 21ST ST,"1624
Oakland, Ca
(37.80505999961946, -122.27301999967312)",1624,"1624 EAST 21ST ST, Oakland, CA",37.7932097,-122.23869703298429
21520,1.0,1.0,0.0,,Malus floribunda,BELLA VISTA AV,"1078
Oakland, Ca
(37.80505999961946, -122.27301999967312)",1078,"1078 BELLA VISTA AV, Oakland, CA",37.8007044,-122.23615289231914
21549,0.0,0.0,6.0,,Malus sp,CAPELL ST,"584
Oakland, Ca
(37.80505999961946, -122.27301999967312)",584,"584 CAPELL ST, Oakland, CA",37.8039457,-122.2399216695306
21624,0.0,0.0,6.0,,Malus sp,CAPELL ST,"580
Oakland, Ca
(37.80505999961946, -122.27301999967312)",580,"580 CAPELL ST, Oakland, CA",37.8038647,-122.24003347202603
21729,2.0,2.0,0.0,,Malus sp,MCKILLOP RD,"2906
Oakland, Ca
(37.80505999961946, -122.27301999967312)",2906,"2906 MCKILLOP RD, Oakland, CA",37.7951507,-122.22063983100385
21743,0.0,0.0,5.0,,Citrus sp,EAST 21ST ST,"1708
Oakland, Ca
(37.80505999961946, -122.27301999967312)",1708,"1708 EAST 21ST ST, Oakland, CA",37.79279805,-122.237826548882
21770,0.0,0.0,5.0,,Eriobotrya japonica,EAST 21ST ST,"1637
Oakland, Ca
(37.80505999961946, -122.27301999967312)",1637,"1637 EAST 21ST ST, Oakland, CA",37.792698599999994,-122.23884728671473
21967,2.0,2.0,0.0,,Malus floribunda,NICOL AV,"2841
Oakland, Ca
(37.80505999961946, -122.27301999967312)",2841,"2841 NICOL AV, Oakland, CA",37.793573699999996,-122.2165889
22049,0.0,0.0,4.0,,Eriobotrya japonica,HARRINGTON AV,"1925
Oakland, Ca
(37.80505999961946, -122.27301999967312)",1925,"1925 HARRINGTON AV, Oakland, CA",37.780408449999996,-122.21725474815534
22140,0.0,0.0,4.0,,Malus sp,41ST AV,"1730
Oakland, Ca
(37.80505999961946, -122.27301999967312)",1730,"1730 41ST AV, Oakland, CA",37.775544550000006,-122.21445530482403
22192,0.0,0.0,5.0,,Persea sp / avocado,EAST 16TH ST,"2918
Oakland, Ca
(37.80505999961946, -122.27301999967312)",2918,"2918 EAST 16TH ST, Oakland, CA",37.780464249999994,-122.22612847604515
22234,0.0,0.0,2.0,,Malus sp,EAST 15TH ST,"3007
Oakland, Ca
(37.80505999961946, -122.27301999967312)",3007,"3007 EAST 15TH ST, Oakland, CA",37.77924485,-122.22719605568682
22251,0.0,0.0,4.0,,Malus sp,FORD ST,"2888
Oakland, Ca
(37.80505999961946, -122.27301999967312)",2888,"2888 FORD ST, Oakland, CA",37.77312915,-122.23375069406183
22911,0.0,0.0,5.0,,Eriobotrya japonica,94TH AV,"1545
Oakland, Ca
(37.80505999961946, -122.27301999967312)",1545,"1545 94TH AV, Oakland, CA",37.74827235,-122.1706616968908
22908,5.0,5.0,0.0,Low,Citrus sp,106TH AV,"2318
Oakland, Ca
(37.80505999961946, -122.27301999967312)",2318,"2318 106TH AV, Oakland, CA",37.741970699999996,-122.15464959710646
22940,3.0,3.0,0.0,Low,Eriobotrya japonica,107TH AV,"2231
Oakland, Ca
(37.80505999961946, -122.27301999967312)",2231,"2231 107TH AV, Oakland, CA",37.74132205,-122.15565411093769
22978,0.0,0.0,6.0,,Citrus sp,HOLLY ST,"9645
Oakland, Ca
(37.80505999961946, -122.27301999967312)",9645,"9645 HOLLY ST, Oakland, CA",37.745370750000006,-122.17034090365749
23067,0.0,0.0,3.0,,Persea sp / avocado,78TH AV,"1575
Oakland, Ca
(37.80505999961946, -122.27301999967312)",1575,"1575 78TH AV, Oakland, CA",37.7596347,-122.1805519197693
23227,0.0,0.0,0.0,,Malus sp,GRAND AV,"3850
Oakland, Ca
(37.80505999961946, -122.27301999967312)",3850,"3850 GRAND AV, Oakland, CA",37.81812185,-122.24459785949377
23290,2.0,2.5,0.0,Low,Malus floribunda,YORK ST,"906
Oakland, Ca
(37.80505999961946, -122.27301999967312)",906,"906 YORK ST, Oakland, CA",37.81396705,-122.24203521744434
23369,0.0,0.0,6.0,,Eriobotrya japonica,MANDANA BL,"776
Oakland, Ca
(37.80505999961946, -122.27301999967312)",776,"776 MANDANA, Oakland, CA",37.811766500000004,-122.23403385366768
23613,0.0,0.0,5.0,,Malus floribunda,LARKSPUR RD,"950
Oakland, Ca
(37.80505999961946, -122.27301999967312)",950,"950 LARKSPUR RD, Oakland, CA",37.80884445,-122.23225000033591
23713,0.0,0.0,3.0,,Citrus sp,39TH AV,"3704
Oakland, Ca
(37.80505999961946, -122.27301999967312)",3704,"3704 39TH AV, Oakland, CA",37.790196699999996,-122.19507141443061
23869,2.0,2.0,0.0,Moderate,Malus sp,RAMPART ST,"2400
Oakland, Ca
(37.80505999961946, -122.27301999967312)",2400,"2400 RAMPART ST, Oakland, CA",37.805386049999996,-122.20815318519793
24030,0.0,0.0,4.0,,Citrus sp,EXCELSIOR AV,"1401
Oakland, Ca
(37.80505999961946, -122.27301999967312)",1401,"1401 EXCELSIOR AV, Oakland, CA",37.802627099999995,-122.22867980000001
24071,0.0,0.0,4.0,,Malus sp,,"0
Oakland, Ca
(37.80505999961946, -122.27301999967312)",0,,46.3144754,11.0480288
24058,0.0,0.0,0.0,,Eriobotrya japonica,,"0
Oakland, Ca
(37.80505999961946, -122.27301999967312)",0,,46.3144754,11.0480288
24452,0.0,0.0,4.0,,Malus floribunda,3RD ST,"200
Oakland, Ca
(37.80505999961946, -122.27301999967312)",200,"200 3RD ST, Oakland, CA",37.79484155,-122.27045313819642
24521,2.0,2.0,0.0,Low,Malus floribunda,SKYLINE BL,"0
Oakland, Ca
(37.80505999961946, -122.27301999967312)",0,"0 SKYLINE, Oakland, CA",37.8437091,-122.1960766
25494,0.0,0.0,2.0,,Malus sp,ADELINE ST,"5522
Oakland, Ca
(37.80505999961946, -122.27301999967312)",5522,"5522 ADELINE ST, Oakland, CA",37.8396696,-122.27474650802685
25639,0.0,0.0,5.0,,Malus sp,HOWE ST,"4368
Oakland, Ca
(37.80505999961946, -122.27301999967312)",4368,"4368 HOWE ST, Oakland, CA",37.83046,-122.24832375
25719,0.0,0.0,2.0,,Malus sp,VICENTE ST,"5769
Oakland, Ca
(37.80505999961946, -122.27301999967312)",5769,"5769 VICENTE ST, Oakland, CA",37.8441016,-122.2602100820946
25708,2.0,2.0,0.0,,Malus sp,YOSEMITE AV,"25
Oakland, Ca
(37.80505999961946, -122.27301999967312)",25,"25 YOSEMITE AV, Oakland, CA",37.823375850000005,-122.25538070413926
25776,0.0,0.0,2.0,,Malus floribunda,60TH ST,"398
Oakland, Ca
(37.80505999961946, -122.27301999967312)",398,"398 60TH ST, Oakland, CA",37.8470214,-122.25627604460507
25780,0.0,0.0,2.0,,Malus floribunda,60TH ST,"398
Oakland, Ca
(37.80505999961946, -122.27301999967312)",398,"398 60TH ST, Oakland, CA",37.8470214,-122.25627604460507
25760,0.0,0.0,4.0,,Malus floribunda,MONTE CRESTA AV,"111
Oakland, Ca
(37.80505999961946, -122.27301999967312)",111,"111 MONTE CRESTA AV, Oakland, CA",37.824821299999996,-122.24999030256097
25797,0.0,0.0,2.0,,Malus sp,YOSEMITE AV,"49
Oakland, Ca
(37.80505999961946, -122.27301999967312)",49,"49 YOSEMITE AV, Oakland, CA",37.82291965,-122.25475520738138
25871,0.0,0.0,2.0,,Malus sp,YOSEMITE AV,"41
Oakland, Ca
(37.80505999961946, -122.27301999967312)",41,"41 YOSEMITE AV, Oakland, CA",37.82302585,-122.2549238898838
25913,0.0,0.0,5.5,,Malus floribunda,HUDSON ST,"457
Oakland, Ca
(37.80505999961946, -122.27301999967312)",457,"457 HUDSON ST, Oakland, CA",37.8415978,-122.25501395
25964,0.0,0.0,2.5,,Malus sp,HILLEGASS AV,"6174
Oakland, Ca
(37.80505999961946, -122.27301999967312)",6174,"6174 HILLEGASS AV, Oakland, CA",37.84904415,-122.25418250290429
26048,0.0,0.0,3.0,,Malus sp,MANOA ST,"6249
Oakland, Ca
(37.80505999961946, -122.27301999967312)",6249,"6249 MANOA ST, Oakland, CA",37.8510194,-122.25032677128712
26222,0.0,0.0,3.5,,Malus sp,DANA ST,"6612
Oakland, Ca
(37.80505999961946, -122.27301999967312)",6612,"6612 DANA ST, Oakland, CA",37.852469299999996,-122.25791878728027
26374,0.0,0.0,2.5,,Eriobotrya japonica,EAST 19TH ST,"842
Oakland, Ca
(37.80505999961946, -122.27301999967312)",842,"842 EAST 19TH ST, Oakland, CA",37.7963924,-122.2459671
26419,0.0,0.0,3.0,,Eriobotrya japonica,22ND AV,"3084
Oakland, Ca
(37.80505999961946, -122.27301999967312)",3084,"3084 22ND AV, Oakland, CA",37.7981709,-122.22610531155661
26443,0.0,0.0,9.0,,Malus sp,MONTCLAIR AV,"616
Oakland, Ca
(37.80505999961946, -122.27301999967312)",616,"616 MONTCLAIR AV, Oakland, CA",37.805300200000005,-122.24153694221795
26466,5.0,4.0,0.0,Moderate,Malus sp,CLEVELAND ST,"868
Oakland, Ca
(37.80505999961946, -122.27301999967312)",868,"868 CLEVELAND ST, Oakland, CA",37.80363715,-122.2408343503055
26459,2.0,2.0,0.0,,Malus sp,ZORAH ST,"538
Oakland, Ca
(37.80505999961946, -122.27301999967312)",538,"538 ZORAH ST, Oakland, CA",37.803428350000004,-122.242109098404
26525,3.0,3.0,0.0,,Malus sp,CAPELL ST,"567
Oakland, Ca
(37.80505999961946, -122.27301999967312)",567,"567 CAPELL ST, Oakland, CA",37.80392045,-122.24062120165208
26545,0.0,0.0,6.0,,Malus sp,25TH AV,"2610
Oakland, Ca
(37.80505999961946, -122.27301999967312)",2610,"2610 25TH AV, Oakland, CA",37.790887999999995,-122.22460614425376
26625,0.0,0.0,5.0,,Eriobotrya japonica,19TH AV,"2050
Oakland, Ca
(37.80505999961946, -122.27301999967312)",2050,"2050 19TH AV, Oakland, CA",37.7959846,-122.2319333
26752,0.0,0.0,3.0,,Malus sp,GEORGIA ST,"3055
Oakland, Ca
(37.80505999961946, -122.27301999967312)",3055,"3055 GEORGIA ST, Oakland, CA",37.79603005,-122.20470175708238
27006,0.0,0.0,4.0,,Malus sp,41ST AV,"2108
Oakland, Ca
(37.80505999961946, -122.27301999967312)",2108,"2108 41ST AV, Oakland, CA",37.77860475,-122.21075833883023
27048,0.0,0.0,4.0,,Malus sp,FORD ST,"2888
Oakland, Ca
(37.80505999961946, -122.27301999967312)",2888,"2888 FORD ST, Oakland, CA",37.77312915,-122.23375069406183
27328,2.0,2.0,0.0,Moderate,Malus floribunda,SEMINARY AV,"1301
Oakland, Ca
(37.80505999961946, -122.27301999967312)",1301,"1301 SEMINARY AV, Oakland, CA",37.764344449999996,-122.20103427018027
27397,0.0,0.0,5.0,,Eriobotrya japonica,61ST AV,"1280
Oakland, Ca
(37.80505999961946, -122.27301999967312)",1280,"1280 61ST AV, Oakland, CA",37.762699100000006,-122.20000159343445
27384,0.0,0.0,5.5,,Eriobotrya japonica,BROMLEY AV,"6236
Oakland, Ca
(37.80505999961946, -122.27301999967312)",6236,"6236 BROMLEY AV, Oakland, CA",37.7655292,-122.19358300570727
27444,0.0,0.0,11.0,,Eriobotrya japonica,LAIRD AV,"6184
Oakland, Ca
(37.80505999961946, -122.27301999967312)",6184,"6184 LAIRD AV, Oakland, CA",37.77647185,-122.17921061410526
27522,0.0,0.0,5.0,,Eriobotrya japonica,66TH AV,"3548
Oakland, Ca
(37.80505999961946, -122.27301999967312)",3548,"3548 66TH AV, Oakland, CA",37.7738733,-122.17554660096192
27650,0.0,0.0,4.0,,Eriobotrya japonica,HOLLY ST,"9817
Oakland, Ca
(37.80505999961946, -122.27301999967312)",9817,"9817 HOLLY ST, Oakland, CA",37.74438565,-122.16936922308288
27851,0.0,0.0,4.0,,Persea sp / avocado,75TH AV,"979
Oakland, Ca
(37.80505999961946, -122.27301999967312)",979,"979 75TH AV, Oakland, CA",37.754757049999995,-122.1917749650688
27887,0.0,0.0,4.0,,Malus floribunda,RITCHIE ST,"2758
Oakland, Ca
(37.80505999961946, -122.27301999967312)",2758,"2758 RITCHIE ST, Oakland, CA",37.76411215,-122.16723215390182
28150,0.0,0.0,6.0,,Malus floribunda,SANTA RAY AV,"690
Oakland, Ca
(37.80505999961946, -122.27301999967312)",690,"690 SANTA RAY AV, Oakland, CA",37.811541399999996,-122.23733370590719
28337,0.0,0.0,4.0,,Persea sp / avocado,14TH AV,"3606
Oakland, Ca
(37.80505999961946, -122.27301999967312)",3606,"3606 14TH AV, Oakland, CA",37.801840773134046,-122.2256839435961
28379,0.0,0.0,3.0,,Citrus sp,GLENDORA AV,"1144
Oakland, Ca
(37.80505999961946, -122.27301999967312)",1144,"1144 GLENDORA AV, Oakland, CA",37.8099633,-122.21962762393589
28374,0.0,0.0,4.0,,Malus sp,EXCELSIOR AV,"1600
Oakland, Ca
(37.80505999961946, -122.27301999967312)",1600,"1600 EXCELSIOR AV, Oakland, CA",37.802055800000005,-122.22329340261558
29182,0.0,0.0,4.0,,Malus floribunda,3RD ST,"200
Oakland, Ca
(37.80505999961946, -122.27301999967312)",200,"200 3RD ST, Oakland, CA",37.79484155,-122.27045313819642
29183,0.0,0.0,4.0,,Malus floribunda,3RD ST,"200
Oakland, Ca
(37.80505999961946, -122.27301999967312)",200,"200 3RD ST, Oakland, CA",37.79484155,-122.27045313819642
29270,0.0,0.0,4.0,,Malus floribunda,3RD ST,"200
Oakland, Ca
(37.80505999961946, -122.27301999967312)",200,"200 3RD ST, Oakland, CA",37.79484155,-122.27045313819642
29362,0.0,0.0,5.0,,Malus floribunda,COACH DR,"8156
Oakland, Ca
(37.80505999961946, -122.27301999967312)",8156,"8156 COACH DR, Oakland, CA",37.770418750000005,-122.13764308058742
29439,0.0,0.0,3.0,,Malus sp,CONTRA COSTA RD,"6339
Oakland, Ca
(37.80505999961946, -122.27301999967312)",6339,"6339 CONTRA COSTA RD, Oakland, CA",37.843472683640115,-122.22952385012586
29445,0.0,0.0,14.0,,Malus sp,GOLDEN GATE AV,"5499
Oakland, Ca
(37.80505999961946, -122.27301999967312)",5499,"5499 GOLDEN GATE AV, Oakland, CA",37.8465615,-122.2374789683871
29440,0.0,0.0,4.0,,Malus floribunda,PROCTOR AV,"5100
Oakland, Ca
(37.80505999961946, -122.27301999967312)",5100,"5100 PROCTOR AV, Oakland, CA",37.83853255,-122.22560941016147
29504,3.0,4.0,0.0,,Malus sp,CONTRA COSTA RD,"6351
Oakland, Ca
(37.80505999961946, -122.27301999967312)",6351,"6351 CONTRA COSTA RD, Oakland, CA",37.843142,-122.22892019058244
29543,0.0,0.0,20.0,,Citrus sp,MARGARIDO DR,"6081
Oakland, Ca
(37.80505999961946, -122.27301999967312)",6081,"6081 MARGARIDO DR, Oakland, CA",37.847116549999996,-122.2418041091297
29746,9.0,5.0,0.0,,Malus sp,MARKET ST,"1702
Oakland, Ca
(37.80505999961946, -122.27301999967312)",1702,"1702 MARKET ST, Oakland, CA",37.81032835,-122.27947383672154
30038,0.0,0.0,3.0,,Malus sp,HERZOG ST,"6441
Oakland, Ca
(37.80505999961946, -122.27301999967312)",6441,"6441 HERZOG ST, Oakland, CA",37.84801555,-122.28352915368781
30203,3.0,3.0,0.0,,Malus floribunda,M L KING JR WY,"5500
Oakland, Ca
(37.80505999961946, -122.27301999967312)",5500,"5500 Martin Luther King Jr Way, Oakland, CA",37.84001515,-122.26939549237473
30297,0.0,0.0,5.0,,Eriobotrya japonica,40TH ST,"1001
Oakland, Ca
(37.80505999961946, -122.27301999967312)",1001,"1001 40TH ST, Oakland, CA",37.83091845,-122.27683196563594
30350,1.0,2.0,0.0,,Citrus sp,IRWIN CT,"6441
Oakland, Ca
(37.80505999961946, -122.27301999967312)",6441,"6441 IRWIN CT, Oakland, CA",37.8510266,-122.26160250359791
30817,0.0,0.0,3.0,,Eriobotrya japonica,BROADWAY,"5558
Oakland, Ca
(37.80505999961946, -122.27301999967312)",5558,"5558 BROADWAY, Oakland, CA",37.8411869,-122.24784155004448
30920,0.0,0.0,4.5,,Malus sp,61ST ST,"452
Oakland, Ca
(37.80505999961946, -122.27301999967312)",452,"452 61ST ST, Oakland, CA",37.84766225,-122.25916645000001
31270,0.0,0.0,5.0,,Eriobotrya japonica,EAST 21ST ST,"1637
Oakland, Ca
(37.80505999961946, -122.27301999967312)",1637,"1637 EAST 21ST ST, Oakland, CA",37.792698599999994,-122.23884728671473
31310,0.0,0.0,3.0,,Eriobotrya japonica,22ND AV,"3084
Oakland, Ca
(37.80505999961946, -122.27301999967312)",3084,"3084 22ND AV, Oakland, CA",37.7981709,-122.22610531155661
31352,0.0,0.0,5.0,,Malus sp,ALMA AV,"639
Oakland, Ca
(37.80505999961946, -122.27301999967312)",639,"639 ALMA AV, Oakland, CA",37.80487145,-122.23865534676358
31462,0.0,0.0,6.0,,Malus sp,CAPELL ST,"579
Oakland, Ca
(37.80505999961946, -122.27301999967312)",579,"579 CAPELL ST, Oakland, CA",37.804185950000004,-122.24048368918616
31573,0.0,0.0,6.0,,Eriobotrya japonica,PENNIMAN AV,"4117
Oakland, Ca
(37.80505999961946, -122.27301999967312)",4117,"4117 PENNIMAN AV, Oakland, CA",37.78520815,-122.20195349044135
31617,3.0,3.0,0.0,Low,Citrus sp,SUTER ST,"3385
Oakland, Ca
(37.80505999961946, -122.27301999967312)",3385,"3385 SUTER ST, Oakland, CA",37.7921768,-122.20600940200357
31857,3.0,4.0,0.0,,Malus sp,EAST 18TH ST,"4080
Oakland, Ca
(37.80505999961946, -122.27301999967312)",4080,"4080 EAST 18TH ST, Oakland, CA",37.77587255,-122.2147445567268
31896,0.0,0.0,3.0,,Malus sp,41ST AV,"2262
Oakland, Ca
(37.80505999961946, -122.27301999967312)",2262,"2262 41ST AV, Oakland, CA",37.7805773,-122.2079573275345
31981,0.0,0.0,7.5,,Citrus sp,HIGH ST,"2166
Oakland, Ca
(37.80505999961946, -122.27301999967312)",2166,"2166 HIGH ST, Oakland, CA",37.778118937500004,-122.20855775
32162,2.0,4.0,0.0,,Malus sp,COLE ST,"5300
Oakland, Ca
(37.80505999961946, -122.27301999967312)",5300,"5300 COLE ST, Oakland, CA",37.77334615,-122.1983360099677
32474,2.0,1.5,0.0,Moderate,Citrus sp,105TH AV,"1815
Oakland, Ca
(37.80505999961946, -122.27301999967312)",1815,"1815 105TH AV, Oakland, CA",37.7408719,-122.16235130000001
32545,0.0,0.0,8.0,,Malus sp,DURANT AV,"2819
Oakland, Ca
(37.80505999961946, -122.27301999967312)",2819,"2819 DURANT AV, Oakland, CA",37.742244150000005,-122.14699245035698
32574,0.0,0.0,6.5,,Citrus sp,99TH AV,"2300
Oakland, Ca
(37.80505999961946, -122.27301999967312)",2300,"2300 99TH AV, Oakland, CA",37.74621445,-122.1592016124225
32588,3.5,3.5,0.0,Low,Malus floribunda,VOLTAIRE AV,"10429
Oakland, Ca
(37.80505999961946, -122.27301999967312)",10429,"10429 VOLTAIRE AV, Oakland, CA",37.74303715,-122.15532707832278
32651,0.0,0.0,5.5,,Eriobotrya japonica,84TH AV,"1239
Oakland, Ca
(37.80505999961946, -122.27301999967312)",1239,"1239 84TH AV, Oakland, CA",37.75304915,-122.18041305120049
32642,0.0,0.0,5.0,,Eriobotrya japonica,B ST,"0
Oakland, Ca
(37.80505999961946, -122.27301999967312)",0,"0 B ST, Oakland, CA",37.7546546,-122.1830629
32688,0.0,0.0,3.0,,Malus floribunda,78TH AV,"1443
Oakland, Ca
(37.80505999961946, -122.27301999967312)",1443,"1443 78TH AV, Oakland, CA",37.758450350000004,-122.18250735104418
32793,0.0,0.0,3.0,,Eriobotrya japonica,78TH AV,"1575
Oakland, Ca
(37.80505999961946, -122.27301999967312)",1575,"1575 78TH AV, Oakland, CA",37.7596347,-122.1805519197693
33026,0.0,0.0,3.0,,Citrus sp,EL CENTRO AV,"1059
Oakland, Ca
(37.80505999961946, -122.27301999967312)",1059,"1059 EL CENTRO AV, Oakland, CA",37.810945849999996,-122.22014240601317
33168,3.0,3.0,0.0,Moderate,Citrus sp,CLARENDON CR,"1000
Oakland, Ca
(37.80505999961946, -122.27301999967312)",1000,"1000 CLARENDON CR, Oakland, CA",37.8125055,-122.22840366859421
33231,0.0,0.0,3.0,,Citrus sp,EL CENTRO AV,"1069
Oakland, Ca
(37.80505999961946, -122.27301999967312)",1069,"1069 EL CENTRO AV, Oakland, CA",37.81082565,-122.21998989386456
33402,0.0,0.0,3.0,,Malus sp,VICTOR AV,"3424
Oakland, Ca
(37.80505999961946, -122.27301999967312)",3424,"3424 VICTOR AV, Oakland, CA",37.79915285,-122.19301532534111
33514,0.0,0.0,6.0,,Malus sp,DOLORES AV,"4621
Oakland, Ca
(37.80505999961946, -122.27301999967312)",4621,"4621 DOLORES AV, Oakland, CA",37.80886195,-122.2174033778
33992,0.0,0.0,4.0,,Malus floribunda,3RD ST,"200
Oakland, Ca
(37.80505999961946, -122.27301999967312)",200,"200 3RD ST, Oakland, CA",37.79484155,-122.27045313819642
34090,0.0,0.0,4.0,,Eriobotrya japonica,EUCLID AV,"280
Oakland, Ca
(37.80505999961946, -122.27301999967312)",280,"280 EUCLID AV, Oakland, CA",37.8144177,-122.25275609823053
34214,3.0,3.0,0.0,High,Malus floribunda,SANFORD ST,"7810
Oakland, Ca
(37.80505999961946, -122.27301999967312)",7810,"7810 SANFORD ST, Oakland, CA",37.7735582,-122.15466594724543
34202,0.0,0.0,3.0,,Malus sp,ROXBURY AV,"3051
Oakland, Ca
(37.80505999961946, -122.27301999967312)",3051,"3051 ROXBURY AV, Oakland, CA",37.73486905,-122.13698614817126
34336,1.0,1.0,0.0,,Citrus sp,LIGGETT DR,"6657
Oakland, Ca
(37.80505999961946, -122.27301999967312)",6657,"6657 LIGGETT DR, Oakland, CA",37.8226811,-122.21102169467072
34491,3.0,6.0,0.0,Low,Citrus sp,MARKET ST,"2539
Oakland, Ca
(37.80505999961946, -122.27301999967312)",2539,"2539 MARKET ST, Oakland, CA",37.817453900000004,-122.27793900025367
34526,4.0,3.0,0.0,,Malus sp,MARKET ST,"1702
Oakland, Ca
(37.80505999961946, -122.27301999967312)",1702,"1702 MARKET ST, Oakland, CA",37.81032835,-122.27947383672154
34821,0.0,0.0,3.0,,Persea sp / avocado,M L KING JR WY,"5820
Oakland, Ca
(37.80505999961946, -122.27301999967312)",5820,"5820 Martin Luther King Jr Way, Oakland, CA",37.84398395,-122.27017482195944
17420,0.0,0.0,4.0,,Malus sp,ROSEDALE AV,"1938
Oakland, Ca
(37.80505999961946, -122.27301999967312)",1938,"1938 ROSEDALE AV, Oakland, CA",37.7776015,-122.21363449554457
35183,1.0,1.0,0.0,,Malus sp,55TH ST,"920
Oakland, Ca
(37.80505999961946, -122.27301999967312)",920,"920 55TH ST, Oakland, CA",37.839354650000004,-122.2747972221299
35226,6.0,6.0,0.0,,Malus sp,OPAL ST,"4070
Oakland, Ca
(37.80505999961946, -122.27301999967312)",4070,"4070 OPAL ST, Oakland, CA",37.82884795,-122.25834624592065
35374,2.0,3.0,0.0,,Malus sp,YOSEMITE AV,"37
Oakland, Ca
(37.80505999961946, -122.27301999967312)",37,"37 YOSEMITE AV, Oakland, CA",37.8231488,-122.25508244703406
35412,2.0,3.0,0.0,,Malus sp,YOSEMITE AV,"30
Oakland, Ca
(37.80505999961946, -122.27301999967312)",30,"30 YOSEMITE AV, Oakland, CA",37.823576599999996,-122.254907
35456,0.0,0.0,3.0,,Malus sp,49TH ST,"352
Oakland, Ca
(37.80505999961946, -122.27301999967312)",352,"352 49TH ST, Oakland, CA",37.834789900000004,-122.25581931177811
35601,0.0,0.0,3.0,,Malus sp,MANOA ST,"6200
Oakland, Ca
(37.80505999961946, -122.27301999967312)",6200,"6200 MANOA ST, Oakland, CA",37.85035535,-122.24952089430147
35715,3.0,20.0,0.0,,Eriobotrya japonica,,"0
Oakland, Ca
(37.80505999961946, -122.27301999967312)",0,,46.3144754,11.0480288
35749,0.0,0.0,5.5,,Malus floribunda,HUDSON ST,"455
Oakland, Ca
(37.80505999961946, -122.27301999967312)",455,"455 HUDSON ST, Oakland, CA",37.84153175,-122.2549161
21110,0.0,0.0,6.0,,Malus sp,BROADWAY,"5659
Oakland, Ca
(37.80505999961946, -122.27301999967312)",5659,"5659 BROADWAY, Oakland, CA",37.8426723,-122.24756347601809
35788,0.0,0.0,2.5,,Malus floribunda,62ND ST,"459
Oakland, Ca
(37.80505999961946, -122.27301999967312)",459,"459 62ND ST, Oakland, CA",37.8479273,-122.25959405366214
35872,3.0,5.0,0.0,,Malus sp,9TH AV,"1215
Oakland, Ca
(37.80505999961946, -122.27301999967312)",1215,"1215 9TH AV, Oakland, CA",37.7924206,-122.2513371
35898,3.0,5.0,0.0,High,Malus sp,13TH AV,"1139
Oakland, Ca
(37.80505999961946, -122.27301999967312)",1139,"1139 13TH AV, Oakland, CA",37.7892116,-122.24849505
35873,3.0,6.0,0.0,,Malus sp,9TH AV,"1215
Oakland, Ca
(37.80505999961946, -122.27301999967312)",1215,"1215 9TH AV, Oakland, CA",37.7924206,-122.2513371
35927,3.0,6.0,0.0,,Malus sp,EAST 14TH ST,"0
Oakland, Ca
(37.80505999961946, -122.27301999967312)",0,"0 EAST 14TH ST, Oakland, CA",37.7354179,-122.1637695
36020,0.0,0.0,5.0,,Eriobotrya japonica,EAST 24TH ST,"2398
Oakland, Ca
(37.80505999961946, -122.27301999967312)",2398,"2398 EAST 24TH ST, Oakland, CA",37.78977115,-122.22725447480427
36064,6.0,6.0,0.0,,Malus sp,16TH AV,"1919
Oakland, Ca
(37.80505999961946, -122.27301999967312)",1919,"1919 16TH AV, Oakland, CA",37.79217615,-122.24090595359971
36079,0.0,0.0,5.0,,Malus sp,HILLGIRT CR,"636
Oakland, Ca
(37.80505999961946, -122.27301999967312)",636,"636 HILLGIRT, Oakland, CA",37.8081793,-122.24439783115464
36117,0.0,0.0,7.0,,Eriobotrya japonica,EAST 15TH ST,"2432
Oakland, Ca
(37.80505999961946, -122.27301999967312)",2432,"2432 EAST 15TH ST, Oakland, CA",37.7831391,-122.2328667010327
36145,3.0,3.0,0.0,Low,Malus sp,CAPELL ST,"567
Oakland, Ca
(37.80505999961946, -122.27301999967312)",567,"567 CAPELL ST, Oakland, CA",37.80392045,-122.24062120165208
36178,0.0,0.0,3.0,,Eriobotrya japonica,EAST 21ST ST,"2774
Oakland, Ca
(37.80505999961946, -122.27301999967312)",2774,"2774 EAST 21ST ST, Oakland, CA",37.7851573,-122.22537886088122
36241,0.0,0.0,6.0,,Malus floribunda,SHEFFIELD AV,"2921
Oakland, Ca
(37.80505999961946, -122.27301999967312)",2921,"2921 SHEFFIELD AV, Oakland, CA",37.79558215,-122.22169843934475
36268,0.0,0.0,2.0,,Malus sp,RANDOLPH AV,"3227
Oakland, Ca
(37.80505999961946, -122.27301999967312)",3227,"3227 RANDOLPH AV, Oakland, CA",37.79948955,-122.22546076784995
36318,0.0,0.0,4.0,,Eriobotrya japonica,OCTAVIA ST,"2923
Oakland, Ca
(37.80505999961946, -122.27301999967312)",2923,"2923 OCTAVIA ST, Oakland, CA",37.7891929,-122.2067291021699
36528,0.0,0.0,4.0,,Malus sp,41ST AV,"1730
Oakland, Ca
(37.80505999961946, -122.27301999967312)",1730,"1730 41ST AV, Oakland, CA",37.775544550000006,-122.21445530482403
36599,0.0,0.0,6.0,,Citrus sp,DERBY AV,"510
Oakland, Ca
(37.80505999961946, -122.27301999967312)",510,"510 DERBY AV, Oakland, CA",37.772041,-122.23124140523524
36598,0.0,0.0,4.0,,Malus sp,PETERSON ST,"415
Oakland, Ca
(37.80505999961946, -122.27301999967312)",415,"415 PETERSON ST, Oakland, CA",37.7727223,-122.23396332036523
36603,0.0,0.0,0.0,,Malus sp,41ST AV,"2100
Oakland, Ca
(37.80505999961946, -122.27301999967312)",2100,"2100 41ST AV, Oakland, CA",37.7784565,-122.21086885704096
36629,0.0,0.0,3.0,,Malus sp,MERA ST,"4108
Oakland, Ca
(37.80505999961946, -122.27301999967312)",4108,"4108 MERA ST, Oakland, CA",37.7775571,-122.21178432134461
36628,0.0,0.0,3.0,,Malus sp,MERA ST,"4108
Oakland, Ca
(37.80505999961946, -122.27301999967312)",4108,"4108 MERA ST, Oakland, CA",37.7775571,-122.21178432134461
36774,0.0,0.0,2.0,,Malus sp,MAXWELL AV,"2930
Oakland, Ca
(37.80505999961946, -122.27301999967312)",2930,"2930 MAXWELL AV, Oakland, CA",37.7798854,-122.19430724544515
36895,2.0,7.0,0.0,,Malus floribunda,51ST AV,"1850
Oakland, Ca
(37.80505999961946, -122.27301999967312)",1850,"1850 51ST AV, Oakland, CA",37.7722735,-122.20493458446656
36955,2.0,3.0,0.0,,Malus sp,SAN LEANDRO ST,"4401
Oakland, Ca
(37.80505999961946, -122.27301999967312)",4401,"4401 SAN LEANDRO ST, Oakland, CA",37.7699326,-122.21649
37071,0.0,0.0,2.0,,Eriobotrya japonica,BUENA VENTURA AV,"6437
Oakland, Ca
(37.80505999961946, -122.27301999967312)",6437,"6437 BUENA VENTURA AV, Oakland, CA",37.77648285,-122.17554361718487
37212,1.0,1.0,0.0,Moderate,Citrus sp,OAKDALE AV,"6168
Oakland, Ca
(37.80505999961946, -122.27301999967312)",6168,"6168 OAKDALE AV, Oakland, CA",37.778642500000004,-122.17629604999999
37339,0.0,0.0,3.0,,Persea sp / avocado,103RD AV,"2166
Oakland, Ca
(37.80505999961946, -122.27301999967312)",2166,"2166 103RD AV, Oakland, CA",37.74333345,-122.1585695
37326,0.0,0.0,6.0,,Eriobotrya japonica,107TH AV,"2327
Oakland, Ca
(37.80505999961946, -122.27301999967312)",2327,"2327 107TH AV, Oakland, CA",37.7416165,-122.15447197189826
37321,2.0,2.0,0.0,Moderate,Malus floribunda,92ND AV,"2239
Oakland, Ca
(37.80505999961946, -122.27301999967312)",2239,"2239 92ND AV, Oakland, CA",37.75336915,-122.16424944292595
37439,0.0,0.0,3.0,,Eriobotrya japonica,92ND AV,"1602
Oakland, Ca
(37.80505999961946, -122.27301999967312)",1602,"1602 92ND AV, Oakland, CA",37.74956935,-122.17128948455809
37518,0.0,0.0,6.0,,Eriobotrya japonica,85TH AV,"1700
Oakland, Ca
(37.80505999961946, -122.27301999967312)",1700,"1700 85TH AV, Oakland, CA",37.75508015,-122.17373696664056
37598,2.0,2.0,0.0,Low,Malus sp,79TH AV,"1844
Oakland, Ca
(37.80505999961946, -122.27301999967312)",1844,"1844 79TH AV, Oakland, CA",37.7598664,-122.1763049068035
37658,3.0,3.0,0.0,,Malus sp,CIRCLE HILL DR,"7548
Oakland, Ca
(37.80505999961946, -122.27301999967312)",7548,"7548 CIRCLE HILL DR, Oakland, CA",37.77392335,-122.16200584513649
37760,2.0,2.5,0.0,Low,Malus floribunda,YORK ST,"906
Oakland, Ca
(37.80505999961946, -122.27301999967312)",906,"906 YORK ST, Oakland, CA",37.81396705,-122.24203521744434
37956,0.0,0.0,5.5,,Diospyros kaki,SUNNYHILLS RD,"986
Oakland, Ca
(37.80505999961946, -122.27301999967312)",986,"986 SUNNYHILLS RD, Oakland, CA",37.809559199999995,-122.2309827458794
38109,0.0,0.0,4.0,,Eriobotrya japonica,ARDLEY AV,"4003
Oakland, Ca
(37.80505999961946, -122.27301999967312)",4003,"4003 ARDLEY AV, Oakland, CA",37.8050561,-122.22314491947492
38147,0.0,0.0,4.0,,Malus sp,EXCELSIOR AV,"1600
Oakland, Ca
(37.80505999961946, -122.27301999967312)",1600,"1600 EXCELSIOR AV, Oakland, CA",37.802055800000005,-122.22329340261558
38364,0.0,0.0,3.0,,Malus sp,MADELINE ST,"3061
Oakland, Ca
(37.80505999961946, -122.27301999967312)",3061,"3061 MADELINE ST, Oakland, CA",37.79818855,-122.2023505725125
38580,0.0,0.0,5.0,,Prunus cerasifera,,"0
Oakland, Ca
(37.80505999961946, -122.27301999967312)",0,,46.3144754,11.0480288
38587,0.0,0.0,6.0,,Prunus cerasifera,,"0
Oakland, Ca
(37.80505999961946, -122.27301999967312)",0,,46.3144754,11.0480288
38583,0.0,0.0,5.0,,Prunus cerasifera,,"0
Oakland, Ca
(37.80505999961946, -122.27301999967312)",0,,46.3144754,11.0480288
38579,0.0,0.0,5.0,,Prunus cerasifera,,"0
Oakland, Ca
(37.80505999961946, -122.27301999967312)",0,,46.3144754,11.0480288
14417,2.0,4.0,0.0,Low,Malus sp,DELMER ST,"2457
Oakland, Ca
(37.80505999961946, -122.27301999967312)",2457,"2457 DELMER ST, Oakland, CA",37.803387,-122.20875118677772
34305,0.0,0.0,3.0,,Malus sp,CONTRA COSTA RD,"6345
Oakland, Ca
(37.80505999961946, -122.27301999967312)",6345,"6345 CONTRA COSTA RD, Oakland, CA",37.843277150000006,-122.22906065
33220,0.0,0.0,5.5,,Diospyros kaki,SUNNYHILLS RD,"980
Oakland, Ca
(37.80505999961946, -122.27301999967312)",980,"980 SUNNYHILLS RD, Oakland, CA",37.8095279,-122.23114989143295
29263,0.0,0.0,3.0,,Malus sp,JAYNE AV,"292
Oakland, Ca
(37.80505999961946, -122.27301999967312)",292,"292 JAYNE AV, Oakland, CA",37.81318575,-122.25579185000001
28864,0.0,0.0,6.0,,Malus sp,,"0
Oakland, Ca
(37.80505999961946, -122.27301999967312)",0,,46.3144754,11.0480288
34434,0.0,0.0,2.0,,Malus floribunda,M L KING JR WY,"3251
Oakland, Ca
(37.80505999961946, -122.27301999967312)",3251,"3251 Martin Luther King Jr Way, Oakland, CA",37.82217335,-122.27064426091975
17453,0.0,0.0,3.0,,Malus sp,41ST AV,"2108
Oakland, Ca
(37.80505999961946, -122.27301999967312)",2108,"2108 41ST AV, Oakland, CA",37.77860475,-122.21075833883023
2401,2.0,2.0,0.0,Moderate,Persea sp / avocado,WESLEY AV,"535
Oakland, Ca
(37.80505999961946, -122.27301999967312)",535,"535 WESLEY AV, Oakland, CA",37.805472949999995,-122.2484591030466
13582,0.0,0.0,2.0,,Eriobotrya japonica,TULLY PL,"3051
Oakland, Ca
(37.80505999961946, -122.27301999967312)",3051,"3051 TULLY PL, Oakland, CA",37.7662481,-122.16358184121734
17725,3.0,3.0,0.0,Low,Malus sp,EAST 12TH ST,"5200
Oakland, Ca
(37.80505999961946, -122.27301999967312)",5200,"5200 EAST 12TH ST, Oakland, CA",37.766592,-122.209022
21758,0.0,0.0,4.0,,Citrus sp,SHEFFIELD AV,"3200
Oakland, Ca
(37.80505999961946, -122.27301999967312)",3200,"3200 SHEFFIELD AV, Oakland, CA",37.7978636,-122.22081036690476
2059,3.0,2.0,0.0,,Malus floribunda,ROSS ST,"5738
Oakland, Ca
(37.80505999961946, -122.27301999967312)",5738,"5738 ROSS ST, Oakland, CA",37.8483333,-122.24572885520746
17422,0.0,0.0,4.0,,Malus sp,ROSEDALE AV,"1938
Oakland, Ca
(37.80505999961946, -122.27301999967312)",1938,"1938 ROSEDALE AV, Oakland, CA",37.7776015,-122.21363449554457
31419,0.0,0.0,4.0,,Citrus sp,19TH AV,"2401
Oakland, Ca
(37.80505999961946, -122.27301999967312)",2401,"2401 19TH AV, Oakland, CA",37.79397835,-122.23415405333114
26967,0.0,0.0,0.0,,Malus sp,41ST AV,"2100
Oakland, Ca
(37.80505999961946, -122.27301999967312)",2100,"2100 41ST AV, Oakland, CA",37.7784565,-122.21086885704096
9191,0.0,0.0,6.0,,Citrus sp,TRESTLE GLEN RD,"1643
Oakland, Ca
(37.80505999961946, -122.27301999967312)",1643,"1643 TRESTLE GLEN RD, Oakland, CA",37.8116214,-122.22163017062937
23264,0.0,0.0,2.0,,Malus floribunda,TRESTLE GLEN RD,"651
Oakland, Ca
(37.80505999961946, -122.27301999967312)",651,"651 TRESTLE GLEN RD, Oakland, CA",37.80996745,-122.24226431007327
31069,0.0,0.0,4.0,,Malus sp,61ST ST,"454
Oakland, Ca
(37.80505999961946, -122.27301999967312)",454,"454 61ST ST, Oakland, CA",37.847627849999995,-122.25929755
24954,1.0,1.0,0.0,,Malus floribunda,23RD ST,"668
Oakland, Ca
(37.80505999961946, -122.27301999967312)",668,"668 23RD ST, Oakland, CA",37.8138705,-122.27304125
13479,0.0,0.0,5.5,,Eriobotrya japonica,87TH AV,"1109
Oakland, Ca
(37.80505999961946, -122.27301999967312)",1109,"1109 87TH AV, Oakland, CA",37.74987025,-122.1809068
35874,3.0,6.0,0.0,,Malus sp,9TH AV,"1215
Oakland, Ca
(37.80505999961946, -122.27301999967312)",1215,"1215 9TH AV, Oakland, CA",37.7924206,-122.2513371
14509,0.0,0.0,5.0,,Prunus cerasifera,,"0
Oakland, Ca
(37.80505999961946, -122.27301999967312)",0,,46.3144754,11.0480288
18707,0.0,0.0,3.5,,Malus sp,EDGEWOOD AV,"4355
Oakland, Ca
(37.80505999961946, -122.27301999967312)",4355,"4355 EDGEWOOD AV, Oakland, CA",37.80917865,-122.22091851959178
16329,0.0,0.0,4.0,,Eriobotrya japonica,MONTE CRESTA AV,"131
Oakland, Ca
(37.80505999961946, -122.27301999967312)",131,"131 MONTE CRESTA AV, Oakland, CA",37.824544700000004,-122.25031703852116
8534,0.0,0.0,6.0,,Citrus sp,HOLLY ST,"9707
Oakland, Ca
(37.80505999961946, -122.27301999967312)",9707,"9707 HOLLY ST, Oakland, CA",37.7451841,-122.17020349059689
7581,0.0,0.0,4.0,,Malus sp,PETERSON ST,"415
Oakland, Ca
(37.80505999961946, -122.27301999967312)",415,"415 PETERSON ST, Oakland, CA",37.7727223,-122.23396332036523
33630,2.0,2.0,0.0,Low,Citrus sp,LAGUNA AV,"3715
Oakland, Ca
(37.80505999961946, -122.27301999967312)",3715,"3715 LAGUNA AV, Oakland, CA",37.80104085,-122.20903595902578
33233,2.0,3.0,0.0,Low,Citrus sp,DAVENPORT AV,"4859
Oakland, Ca
(37.80505999961946, -122.27301999967312)",4859,"4859 DAVENPORT AV, Oakland, CA",37.7849695,-122.1814377617228
8025,2.0,6.0,0.0,Low,Malus sp,63RD AV,"1350
Oakland, Ca
(37.80505999961946, -122.27301999967312)",1350,"1350 63RD AV, Oakland, CA",37.76263865,-122.19769679719585
5455,0.0,0.0,14.0,,Malus sp,GOLDEN GATE AV,"5499
Oakland, Ca
(37.80505999961946, -122.27301999967312)",5499,"5499 GOLDEN GATE AV, Oakland, CA",37.8465615,-122.2374789683871
32658,0.0,0.0,6.0,,Eriobotrya japonica,HOLLY ST,"9624
Oakland, Ca
(37.80505999961946, -122.27301999967312)",9624,"9624 HOLLY ST, Oakland, CA",37.74596845,-122.16992735097583
38068,0.0,0.0,2.0,,Malus sp,EAST 38TH ST,"1433
Oakland, Ca
(37.80505999961946, -122.27301999967312)",1433,"1433 EAST 38TH ST, Oakland, CA",37.80359915,-122.22666035295143
29423,0.0,0.0,3.0,,Malus sp,ROXBURY AV,"3051
Oakland, Ca
(37.80505999961946, -122.27301999967312)",3051,"3051 ROXBURY AV, Oakland, CA",37.73486905,-122.13698614817126
7182,0.0,0.0,2.5,,Eriobotrya japonica,EAST 19TH ST,"842
Oakland, Ca
(37.80505999961946, -122.27301999967312)",842,"842 EAST 19TH ST, Oakland, CA",37.7963924,-122.2459671
31307,2.0,2.0,0.0,,Malus sp,MCKILLOP RD,"2866
Oakland, Ca
(37.80505999961946, -122.27301999967312)",2866,"2866 MCKILLOP RD, Oakland, CA",37.79533259926643,-122.220643359608
28856,0.0,0.0,2.0,,Citrus sp,KINGSLEY ST,"3622
Oakland, Ca
(37.80505999961946, -122.27301999967312)",3622,"3622 KINGSLEY ST, Oakland, CA",37.80414045,-122.23188105
34601,0.0,0.0,3.0,,Malus floribunda,M L KING JR WY,"3251
Oakland, Ca
(37.80505999961946, -122.27301999967312)",3251,"3251 Martin Luther King Jr Way, Oakland, CA",37.82217335,-122.27064426091975
527,0.0,0.0,14.0,,Malus sp,GOLDEN GATE AV,"5511
Oakland, Ca
(37.80505999961946, -122.27301999967312)",5511,"5511 GOLDEN GATE AV, Oakland, CA",37.8467569,-122.23777293441705
32725,0.0,0.0,6.0,,Eriobotrya japonica,90TH AV,"2007
Oakland, Ca
(37.80505999961946, -122.27301999967312)",2007,"2007 90TH AV, Oakland, CA",37.75314145,-122.16734540690811
3603,0.0,0.0,3.5,,Malus floribunda,105TH AV,"1815
Oakland, Ca
(37.80505999961946, -122.27301999967312)",1815,"1815 105TH AV, Oakland, CA",37.7408719,-122.16235130000001
28170,0.0,0.0,3.0,,Eriobotrya japonica,FAIRBANKS AV,"560
Oakland, Ca
(37.80505999961946, -122.27301999967312)",560,"560 FAIRBANKS AV, Oakland, CA",37.81572315,-122.24050679999999
23427,0.0,0.0,4.0,,Malus sp,WALAVISTA AV,"805
Oakland, Ca
(37.80505999961946, -122.27301999967312)",805,"805 WALAVISTA AV, Oakland, CA",37.8143216,-122.23279340387529
1171,0.0,0.0,5.0,,Malus floribunda,MARSCHALL ST,"0
Oakland, Ca
(37.80505999961946, -122.27301999967312)",0,"0 MARSHALL, Oakland, CA",37.8404357,-122.283873
22913,0.0,0.0,3.5,,Malus sp,BEVERLY AV,"10700
Oakland, Ca
(37.80505999961946, -122.27301999967312)",10700,"10700 BEVERLY AV, Oakland, CA",37.7399707,-122.15934007931034
26210,2.0,2.0,0.0,,Malus floribunda,63RD ST,"345
Oakland, Ca
(37.80505999961946, -122.27301999967312)",345,"345 63RD ST, Oakland, CA",37.8499224,-122.2542437
26735,0.0,0.0,6.0,,Malus sp,GEORGIA ST,"2939
Oakland, Ca
(37.80505999961946, -122.27301999967312)",2939,"2939 GEORGIA ST, Oakland, CA",37.79689465,-122.20694446410828
3476,0.0,0.0,10.0,,Eriobotrya japonica,64TH AV,"3500
Oakland, Ca
(37.80505999961946, -122.27301999967312)",3500,"3500 64TH AV, Oakland, CA",37.7751357,-122.17807806473931
12168,0.0,0.0,5.0,,Persea sp / avocado,22ND AV,"1653
Oakland, Ca
(37.80505999961946, -122.27301999967312)",1653,"1653 22ND AV, Oakland, CA",37.7871027,-122.23588910000001
33708,0.0,0.0,6.0,,Prunus cerasifera,,"0
Oakland, Ca
(37.80505999961946, -122.27301999967312)",0,,46.3144754,11.0480288
3677,3.5,2.5,0.0,Low,Malus floribunda,VOLTAIRE AV,"10429
Oakland, Ca
(37.80505999961946, -122.27301999967312)",10429,"10429 VOLTAIRE AV, Oakland, CA",37.74303715,-122.15532707832278
23455,0.0,0.0,3.0,,Malus floribunda,LAKE SHORE AV,"4258
Oakland, Ca
(37.80505999961946, -122.27301999967312)",4258,"4257 LAKE SHORE AVE, Oakland, CA",,
34691,0.0,0.0,5.0,,Eriobotrya japonica,3RD ST,"1538
Oakland, Ca
(37.80505999961946, -122.27301999967312)",1538,"1538 3RD ST, Oakland, CA",37.803213299999996,-122.29780780420963
4843,0.0,0.0,5.0,,Eriobotrya japonica,,"0
Oakland, Ca
(37.80505999961946, -122.27301999967312)",0,,46.3144754,11.0480288
1480,3.0,3.0,0.0,,Malus sp,55TH ST,"901
Oakland, Ca
(37.80505999961946, -122.27301999967312)",901,"901 55TH ST, Oakland, CA",37.83903155,-122.2741972
36508,4.0,9.0,0.0,,Malus sp,CARRINGTON ST,"3800
Oakland, Ca
(37.80505999961946, -122.27301999967312)",3800,"3800 CARRINGTON ST, Oakland, CA",37.781600850000004,-122.21259981281244
21761,0.0,0.0,6.0,,Malus sp,CAPELL ST,"561
Oakland, Ca
(37.80505999961946, -122.27301999967312)",561,"561 CAPELL ST, Oakland, CA",37.803823300000005,-122.24069208437825
36071,0.0,0.0,4.0,,Eriobotrya japonica,7TH AV,"2330
Oakland, Ca
(37.80505999961946, -122.27301999967312)",2330,"2330 7TH AV, Oakland, CA",37.800611,-122.24304396386168
3475,1.0,1.0,0.0,Moderate,Citrus sp,OAKDALE AV,"6168
Oakland, Ca
(37.80505999961946, -122.27301999967312)",6168,"6168 OAKDALE AV, Oakland, CA",37.778642500000004,-122.17629604999999
16358,2.5,2.5,0.0,,Malus sp,COLBY ST,"5825
Oakland, Ca
(37.80505999961946, -122.27301999967312)",5825,"5825 COLBY ST, Oakland, CA",37.8452142,-122.25638223501164
